SWARM A                 
1 39452U 13067B   26190.79931043  .00007631  00000+0  12899-3 0  9992
2 39452  87.3310  47.8352 0003307  95.5275 264.6364 15.51387504709750
SWARM C                 
1 39453U 13067C   26190.79921465  .00007579  00000+0  12811-3 0  9995
2 39453  87.3309  46.4160 0003300  95.5417 264.6221 15.51386432709719
BRITE-CA1 (TORONTO)     
1 40020U 14033L   26190.18755172  .00000733  00000+0  11766-3 0  9997
2 40020  97.9764 318.7133 0078005 205.5751 154.1590 14.72715027645456
OCO 2                   
1 40059U 14035A   26190.81629832  .00000243  00000+0  63893-4 0  9999
2 40059  98.2020 131.7654 0001472  81.9888 278.1478 14.57129686639345
BRITE-PL2 (HEWELIUSZ)   
1 40119U 14049B   26190.26496503  .00001666  00000+0  15885-3 0  9994
2 40119  97.9114 302.4379 0014777  41.3663 318.8673 14.94675108644741
MMS 1                   
1 40482U 15011A   26190.83335647 -.00000851  00000+0  00000+0 0  9996
2 40482  72.4103 348.5082 8300897 167.9457  88.5061  0.28362801  1347
MMS 2                   
1 40483U 15011B   26190.83335647 -.00000852  00000+0  00000+0 0  9998
2 40483  72.4141 348.5072 8303713 167.9486  88.4945  0.28362766  1341
MMS 3                   
1 40484U 15011C   26190.83335647 -.00000851  00000+0  00000+0 0  9998
2 40484  72.4150 348.5187 8302109 167.9562  88.4692  0.28362919  1318
MMS 4                   
1 40485U 15011D   26190.83335647 -.00000851  00000+0  00000+0 0  9999
2 40485  72.4107 348.5021 8302050 167.9660  88.4637  0.28362951  1373
ASTROSAT                
1 40930U 15052A   26190.76234381  .00001316  00000+0  78388-4 0  9999
2 40930   5.9979 352.8465 0008022 352.9793   7.0222 14.82546978583182
DAMPE                   
1 41173U 15078A   26190.85066252  .00000960  00000+0  34781-4 0  9990
2 41173  97.4567 196.4297 0012155   4.6007 355.5343 15.30844694588019
PISAT                   
1 41784U 16059B   26189.94075046  .00000644  00000+0  11700-3 0  9991
2 41784  97.8186 189.4594 0030131 133.9612 226.4087 14.69022214522939
HXMT (HUIYAN)           
1 42758U 17034A   26190.82674262  .00003419  00000+0  17131-3 0  9998
2 42758  43.0148  56.9617 0032696 288.0449  71.6838 15.18658088501103
FLYING LAPTOP           
1 42831U 17042G   26190.84802454  .00002631  00000+0  20822-3 0  9993
2 42831  97.4786 345.5249 0019893  49.3931 310.9021 15.01291095489855
ZHANGHENG 1-01 (CSES-1) 
1 43194U 18015C   26190.83670425  .00005220  00000+0  24099-3 0  9994
2 43194  97.6885 356.9507 0015908 183.2781 176.8352 15.20563002468086
SALSAT                  
1 46495U 20068K   26190.25177099  .00005482  00000+0  19084-3 0  9995
2 46495  97.8858 194.6644 0008593 215.0810 144.9864 15.30117525318739
IXPE                    
1 49954U 21121A   26190.83335647  .00008864  00000+0  46805-3 0  9996
2 49954   0.2285 146.1803 0007145  59.4895 250.5879 15.10458244  5825
