OBJECT_NAME,OBJECT_ID,EPOCH,MEAN_MOTION,ECCENTRICITY,INCLINATION,RA_OF_ASC_NODE,ARG_OF_PERICENTER,MEAN_ANOMALY,EPHEMERIS_TYPE,CLASSIFICATION_TYPE,NORAD_CAT_ID,ELEMENT_SET_NO,REV_AT_EPOCH,BSTAR,MEAN_MOTION_DOT,MEAN_MOTION_DDOT
SWARM A,2013-067B,2026-07-09T19:11:00.421152,15.51387504,.0003307,87.3310,47.8352,95.5275,264.6364,0,U,39452,999,70975,.12899E-3,.7631E-4,0
SWARM C,2013-067C,2026-07-09T19:10:52.145760,15.51386432,.00033,87.3309,46.4160,95.5417,264.6221,0,U,39453,999,70971,.12811E-3,.7579E-4,0
BRITE-CA1 (TORONTO),2014-033L,2026-07-09T04:30:04.468608,14.72715027,.00780057,97.9764,318.7133,205.5751,154.1590,0,U,40020,999,64545,.1176575E-3,.733E-5,0
OCO 2,2014-035A,2026-07-09T19:35:28.174848,14.57129686,.0001472,98.2020,131.7654,81.9888,278.1478,0,U,40059,999,63934,.63893E-4,.243E-5,0
BRITE-PL2 (HEWELIUSZ),2014-049B,2026-07-09T06:21:32.978592,14.94675108,.00147773,97.9114,302.4379,41.3663,318.8673,0,U,40119,999,64474,.15885348E-3,.1666E-4,0
MMS 1,2015-011A,2026-07-09T20:00:01.999008,0.28362801,.8300897,72.4103,348.5082,167.9457,88.5061,0,U,40482,999,134,0,-.851E-5,0
MMS 2,2015-011B,2026-07-09T20:00:01.999008,0.28362766,.8303713,72.4141,348.5072,167.9486,88.4945,0,U,40483,999,134,0,-.852E-5,0
MMS 3,2015-011C,2026-07-09T20:00:01.999008,0.28362919,.8302109,72.4150,348.5187,167.9562,88.4692,0,U,40484,999,131,0,-.851E-5,0
MMS 4,2015-011D,2026-07-09T20:00:01.999008,0.28362951,.830205,72.4107,348.5021,167.9660,88.4637,0,U,40485,999,137,0,-.851E-5,0
ASTROSAT,2015-052A,2026-07-09T18:17:46.505184,14.82546978,.0008022,5.9979,352.8465,352.9793,7.0222,0,U,40930,999,58318,.78388E-4,.1316E-4,0
DAMPE,2015-078A,2026-07-09T20:24:57.241728,15.30844694,.0012155,97.4567,196.4297,4.6007,355.5343,0,U,41173,999,58801,.34781E-4,.96E-5,0
PISAT,2016-059B,2026-07-08T22:34:40.839744,14.69022214,.00301313,97.8186,189.4594,133.9612,226.4087,0,U,41784,999,52293,.11699948E-3,.644E-5,0
HXMT (HUIYAN),2017-034A,2026-07-09T19:50:30.562368,15.18658088,.0032696,43.0148,56.9617,288.0449,71.6838,0,U,42758,999,50110,.17131E-3,.3419E-4,0
FLYING LAPTOP,2017-042G,2026-07-09T20:21:09.320256,15.01291095,.0019893,97.4786,345.5249,49.3931,310.9021,0,U,42831,999,48985,.20822E-3,.2631E-4,0
ZHANGHENG 1-01 (CSES-1),2018-015C,2026-07-09T20:04:51.247200,15.20563002,.0015908,97.6885,356.9507,183.2781,176.8352,0,U,43194,999,46808,.24099E-3,.522E-4,0
SALSAT,2020-068K,2026-07-09T06:02:33.013536,15.30117525,.00085936,97.8858,194.6644,215.0810,144.9864,0,U,46495,999,31873,.19084228E-3,.5482E-4,0
IXPE,2021-121A,2026-07-09T20:00:01.999008,15.10458244,.0007145,0.2285,146.1803,59.4895,250.5879,0,U,49954,999,582,.46805E-3,.8864E-4,0
